{
  "norad_id": 48582,
  "name": "STARLINK-2236",
  "history": [
    {
      "epoch": "2026-03-28T22:11:00.741696",
      "apogee_km": 543.330483641218,
      "perigee_km": 541.1048975727199,
      "latitude_deg": 49.294921549643064,
      "longitude_deg": -153.06584256025963,
      "semi_major_axis_km": 6920.354690606969,
      "eccentricity": 0.0001608,
      "inclination_deg": 53.0565,
      "raan_deg": 10.3589,
      "arg_perigee_deg": 110.5868,
      "mean_anomaly_deg": 249.5294,
      "mean_motion_rev_day": 15.08030867
    },
    {
      "epoch": "2026-03-29T01:21:53.008992",
      "apogee_km": 543.3008425356511,
      "perigee_km": 541.1098621469,
      "latitude_deg": -9.037671576969048,
      "longitude_deg": -140.34110111999325,
      "semi_major_axis_km": 6920.342352341275,
      "eccentricity": 0.0001583,
      "inclination_deg": 53.0563,
      "raan_deg": 9.7619,
      "arg_perigee_deg": 113.5867,
      "mean_anomaly_deg": 246.5289,
      "mean_motion_rev_day": 15.080349
    }
  ]
}